[{"ID":1101,"AreaCode":null,"ParentID":11,"Name":"北京市辖","PinYin":null,"PY":null,"P":null},{"ID":1102,"AreaCode":null,"ParentID":11,"Name":"北京县辖","PinYin":null,"PY":null,"P":null},{"ID":1201,"AreaCode":null,"ParentID":12,"Name":"天津市辖","PinYin":null,"PY":null,"P":null},{"ID":1202,"AreaCode":null,"ParentID":12,"Name":"天津县辖","PinYin":null,"PY":null,"P":null},{"ID":1301,"AreaCode":"0311","ParentID":13,"Name":"石家庄","PinYin":"shijiazhuang","PY":"sjz","P":"s"},{"ID":1302,"AreaCode":"0315","ParentID":13,"Name":"唐山","PinYin":"tangshan","PY":"ts","P":"t"},{"ID":1303,"AreaCode":"0335","ParentID":13,"Name":"秦皇岛","PinYin":"qinhuangdao","PY":"qhd","P":"q"},{"ID":1304,"AreaCode":"0310","ParentID":13,"Name":"邯郸","PinYin":"handan","PY":"hd","P":"h"},{"ID":1305,"AreaCode":"0319","ParentID":13,"Name":"邢台","PinYin":"xingtai","PY":"xt","P":"x"},{"ID":1306,"AreaCode":"0312","ParentID":13,"Name":"保定","PinYin":"baoding","PY":"bd","P":"b"},{"ID":1307,"AreaCode":"0313","ParentID":13,"Name":"张家口","PinYin":"zhangjiakou","PY":"zjk","P":"z"},{"ID":1308,"AreaCode":"0314","ParentID":13,"Name":"承德","PinYin":"chengde","PY":"cd","P":"c"},{"ID":1309,"AreaCode":"0317","ParentID":13,"Name":"沧州","PinYin":"cangzhou","PY":"cz","P":"c"},{"ID":1310,"AreaCode":"0316","ParentID":13,"Name":"廊坊","PinYin":"langfang","PY":"lf","P":"l"},{"ID":1311,"AreaCode":"0318","ParentID":13,"Name":"衡水","PinYin":"hengshui","PY":"hs","P":"h"},{"ID":1401,"AreaCode":"0351","ParentID":14,"Name":"太原","PinYin":"taiyuan","PY":"ty","P":"t"},{"ID":1402,"AreaCode":"0352","ParentID":14,"Name":"大同","PinYin":"datong","PY":"dt","P":"d"},{"ID":1403,"AreaCode":"0353","ParentID":14,"Name":"阳泉","PinYin":"yangquan","PY":"yq","P":"y"},{"ID":1404,"AreaCode":"0355","ParentID":14,"Name":"长治","PinYin":"zhangzhi","PY":"zz","P":"z"},{"ID":1405,"AreaCode":"0356","ParentID":14,"Name":"晋城","PinYin":"jincheng","PY":"jc","P":"j"},{"ID":1406,"AreaCode":"0349","ParentID":14,"Name":"朔州","PinYin":"shuozhou","PY":"sz","P":"s"},{"ID":1407,"AreaCode":"0354","ParentID":14,"Name":"晋中","PinYin":"jinzhong","PY":"jz","P":"j"},{"ID":1408,"AreaCode":"0359","ParentID":14,"Name":"运城","PinYin":"yuncheng","PY":"yc","P":"y"},{"ID":1409,"AreaCode":"0350","ParentID":14,"Name":"忻州","PinYin":"xinzhou","PY":"xz","P":"x"},{"ID":1410,"AreaCode":"0357","ParentID":14,"Name":"临汾","PinYin":"linfen","PY":"lf","P":"l"},{"ID":1423,"AreaCode":null,"ParentID":14,"Name":"吕梁地区","PinYin":null,"PY":null,"P":null},{"ID":1501,"AreaCode":"0471","ParentID":15,"Name":"呼和浩特","PinYin":"huhehaote","PY":"hhht","P":"h"},{"ID":1502,"AreaCode":"0472","ParentID":15,"Name":"包头","PinYin":"baotou","PY":"bt","P":"b"},{"ID":1503,"AreaCode":"0473","ParentID":15,"Name":"乌海","PinYin":"wuhai","PY":"wh","P":"w"},{"ID":1504,"AreaCode":"0476","ParentID":15,"Name":"赤峰","PinYin":"chifeng","PY":"cf","P":"c"},{"ID":1505,"AreaCode":"0475","ParentID":15,"Name":"通辽","PinYin":"tongliao","PY":"tl","P":"t"},{"ID":1521,"AreaCode":null,"ParentID":15,"Name":"呼伦贝尔盟","PinYin":null,"PY":null,"P":null},{"ID":1522,"AreaCode":"0482","ParentID":15,"Name":"兴安盟","PinYin":"xingan","PY":"xa","P":"x"},{"ID":1525,"AreaCode":"0479","ParentID":15,"Name":"锡林郭勒盟","PinYin":"xilinguole","PY":"xlgl","P":"x"},{"ID":1526,"AreaCode":null,"ParentID":15,"Name":"乌兰察布盟","PinYin":null,"PY":null,"P":null},{"ID":1527,"AreaCode":null,"ParentID":15,"Name":"伊克昭盟","PinYin":null,"PY":null,"P":null},{"ID":1528,"AreaCode":null,"ParentID":15,"Name":"巴彦淖尔盟","PinYin":null,"PY":null,"P":null},{"ID":1529,"AreaCode":"0483","ParentID":15,"Name":"阿拉善盟","PinYin":"alashan","PY":"als","P":"a"},{"ID":2101,"AreaCode":"024","ParentID":21,"Name":"沈阳","PinYin":"shenyang","PY":"sy","P":"s"},{"ID":2102,"AreaCode":"0411","ParentID":21,"Name":"大连","PinYin":"dalian","PY":"dl","P":"d"},{"ID":2103,"AreaCode":"0412","ParentID":21,"Name":"鞍山","PinYin":"anshan","PY":"as","P":"a"},{"ID":2104,"AreaCode":"0413","ParentID":21,"Name":"抚顺","PinYin":"fushun","PY":"fs","P":"f"},{"ID":2105,"AreaCode":"0414","ParentID":21,"Name":"本溪","PinYin":"benxi","PY":"bx","P":"b"},{"ID":2106,"AreaCode":"0415","ParentID":21,"Name":"丹东","PinYin":"dandong","PY":"dd","P":"d"},{"ID":2107,"AreaCode":"0416","ParentID":21,"Name":"锦州","PinYin":"jinzhou","PY":"jz","P":"j"},{"ID":2108,"AreaCode":"0417","ParentID":21,"Name":"营口","PinYin":"yingkou","PY":"yk","P":"y"},{"ID":2109,"AreaCode":"0418","ParentID":21,"Name":"阜新","PinYin":"fuxin","PY":"fx","P":"f"},{"ID":2110,"AreaCode":"0419","ParentID":21,"Name":"辽阳","PinYin":"liaoyang","PY":"ly","P":"l"},{"ID":2111,"AreaCode":"0427","ParentID":21,"Name":"盘锦","PinYin":"panjin","PY":"pj","P":"p"},{"ID":2112,"AreaCode":"0410","ParentID":21,"Name":"铁岭","PinYin":"tieling","PY":"tl","P":"t"},{"ID":2113,"AreaCode":"0421","ParentID":21,"Name":"朝阳","PinYin":"chaoyang","PY":"cy","P":"c"},{"ID":2114,"AreaCode":"0429","ParentID":21,"Name":"葫芦岛","PinYin":"huludao","PY":"hld","P":"h"},{"ID":2201,"AreaCode":"0431","ParentID":22,"Name":"长春","PinYin":"zhangchun","PY":"zc","P":"z"},{"ID":2202,"AreaCode":"0432","ParentID":22,"Name":"吉林","PinYin":"jilin","PY":"jl","P":"j"},{"ID":2203,"AreaCode":"0434","ParentID":22,"Name":"四平","PinYin":"siping","PY":"sp","P":"s"},{"ID":2204,"AreaCode":"0437","ParentID":22,"Name":"辽源","PinYin":"liaoyuan","PY":"ly","P":"l"},{"ID":2205,"AreaCode":"0435","ParentID":22,"Name":"通化","PinYin":"tonghua","PY":"th","P":"t"},{"ID":2206,"AreaCode":"0439","ParentID":22,"Name":"白山","PinYin":"baishan","PY":"bs","P":"b"},{"ID":2207,"AreaCode":"0438","ParentID":22,"Name":"松原","PinYin":"songyuan","PY":"sy","P":"s"},{"ID":2208,"AreaCode":"0436","ParentID":22,"Name":"白城","PinYin":"baicheng","PY":"bc","P":"b"},{"ID":2224,"AreaCode":"0433","ParentID":22,"Name":"延边朝鲜族自治州","PinYin":"yanbian","PY":"yb","P":"y"},{"ID":2301,"AreaCode":"0451","ParentID":23,"Name":"哈尔滨","PinYin":"haerbin","PY":"heb","P":"h"},{"ID":2302,"AreaCode":"0452","ParentID":23,"Name":"齐齐哈尔","PinYin":"qiqihaer","PY":"qqhe","P":"q"},{"ID":2303,"AreaCode":"0467","ParentID":23,"Name":"鸡西","PinYin":"jixi","PY":"jx","P":"j"},{"ID":2304,"AreaCode":"0468","ParentID":23,"Name":"鹤岗","PinYin":"hegang","PY":"hg","P":"h"},{"ID":2305,"AreaCode":"0469","ParentID":23,"Name":"双鸭山","PinYin":"shuangyashan","PY":"sys","P":"s"},{"ID":2306,"AreaCode":"0459","ParentID":23,"Name":"大庆","PinYin":"daqing","PY":"dq","P":"d"},{"ID":2307,"AreaCode":"0458","ParentID":23,"Name":"伊春","PinYin":"yichun","PY":"yc","P":"y"},{"ID":2308,"AreaCode":"0454","ParentID":23,"Name":"佳木斯","PinYin":"jiamusi","PY":"jms","P":"j"},{"ID":2309,"AreaCode":"0464","ParentID":23,"Name":"七台河","PinYin":"qitaihe","PY":"qth","P":"q"},{"ID":2310,"AreaCode":"0453","ParentID":23,"Name":"牡丹江","PinYin":"mudanjiang","PY":"mdj","P":"m"},{"ID":2311,"AreaCode":"0456","ParentID":23,"Name":"黑河","PinYin":"heihe","PY":"hh","P":"h"},{"ID":2312,"AreaCode":"0455","ParentID":23,"Name":"绥化","PinYin":"suihua","PY":"sh","P":"s"},{"ID":2327,"AreaCode":"0457","ParentID":23,"Name":"大兴安岭地区","PinYin":"daxinganling","PY":"dxal","P":"d"},{"ID":3101,"AreaCode":null,"ParentID":31,"Name":"上海市辖","PinYin":null,"PY":null,"P":null},{"ID":3102,"AreaCode":null,"ParentID":31,"Name":"上海县辖","PinYin":null,"PY":null,"P":null},{"ID":3201,"AreaCode":"","ParentID":32,"Name":"南京","PinYin":"nanjing","PY":"nj","P":"n"},{"ID":3202,"AreaCode":"0510","ParentID":32,"Name":"无锡","PinYin":"wuxi","PY":"wx","P":"w"},{"ID":3203,"AreaCode":"0516","ParentID":32,"Name":"徐州","PinYin":"xuzhou","PY":"xz","P":"x"},{"ID":3204,"AreaCode":"0519","ParentID":32,"Name":"常州","PinYin":"changzhou","PY":"cz","P":"c"},{"ID":3205,"AreaCode":"0512","ParentID":32,"Name":"苏州","PinYin":"suzhou","PY":"sz","P":"s"},{"ID":3206,"AreaCode":"0513","ParentID":32,"Name":"南通","PinYin":"nantong","PY":"nt","P":"n"},{"ID":3207,"AreaCode":"0518","ParentID":32,"Name":"连云港","PinYin":"lianyungang","PY":"lyg","P":"l"},{"ID":3208,"AreaCode":"0517","ParentID":32,"Name":"淮安","PinYin":"huaian","PY":"ha","P":"h"},{"ID":3209,"AreaCode":"0515","ParentID":32,"Name":"盐城","PinYin":"yancheng","PY":"yc","P":"y"},{"ID":3210,"AreaCode":"0514","ParentID":32,"Name":"扬州","PinYin":"yangzhou","PY":"yz","P":"y"},{"ID":3211,"AreaCode":"0511","ParentID":32,"Name":"镇江","PinYin":"zhenjiang","PY":"zj","P":"z"},{"ID":3212,"AreaCode":"0523","ParentID":32,"Name":"泰州","PinYin":"taizhou","PY":"tz","P":"t"},{"ID":3213,"AreaCode":"0527","ParentID":32,"Name":"宿迁","PinYin":"suqian","PY":"sq","P":"s"},{"ID":3301,"AreaCode":"0571","ParentID":33,"Name":"杭州","PinYin":"hangzhou","PY":"hz","P":"h"},{"ID":3302,"AreaCode":"0574","ParentID":33,"Name":"宁波","PinYin":"ningbo","PY":"nb","P":"n"},{"ID":3303,"AreaCode":"0577","ParentID":33,"Name":"温州","PinYin":"wenzhou","PY":"wz","P":"w"},{"ID":3304,"AreaCode":"0573","ParentID":33,"Name":"嘉兴","PinYin":"jiaxing","PY":"jx","P":"j"},{"ID":3305,"AreaCode":"0572","ParentID":33,"Name":"湖州","PinYin":"huzhou","PY":"hz","P":"h"},{"ID":3306,"AreaCode":"0575","ParentID":33,"Name":"绍兴","PinYin":"shaoxing","PY":"sx","P":"s"},{"ID":3307,"AreaCode":"0579","ParentID":33,"Name":"金华","PinYin":"jinhua","PY":"jh","P":"j"},{"ID":3308,"AreaCode":"0570","ParentID":33,"Name":"衢州","PinYin":"quzhou","PY":"qz","P":"q"},{"ID":3309,"AreaCode":"0580","ParentID":33,"Name":"舟山","PinYin":"zhoushan","PY":"zs","P":"z"},{"ID":3310,"AreaCode":"0576","ParentID":33,"Name":"台州","PinYin":"taizhou","PY":"tz","P":"t"},{"ID":3311,"AreaCode":"0578","ParentID":33,"Name":"丽水","PinYin":"lishui","PY":"ls","P":"l"},{"ID":3401,"AreaCode":"0551","ParentID":34,"Name":"合肥","PinYin":"hefei","PY":"hf","P":"h"},{"ID":3402,"AreaCode":"0553","ParentID":34,"Name":"芜湖","PinYin":"wuhu","PY":"wh","P":"w"},{"ID":3403,"AreaCode":"0552","ParentID":34,"Name":"蚌埠","PinYin":"bangbu","PY":"bb","P":"b"},{"ID":3404,"AreaCode":"0554","ParentID":34,"Name":"淮南","PinYin":"huainan","PY":"hn","P":"h"},{"ID":3405,"AreaCode":"0555","ParentID":34,"Name":"马鞍山","PinYin":"maanshan","PY":"mas","P":"m"},{"ID":3406,"AreaCode":"0561","ParentID":34,"Name":"淮北","PinYin":"huaibei","PY":"hb","P":"h"},{"ID":3407,"AreaCode":"0562","ParentID":34,"Name":"铜陵","PinYin":"tongling","PY":"tl","P":"t"},{"ID":3408,"AreaCode":"0556","ParentID":34,"Name":"安庆","PinYin":"anqing","PY":"aq","P":"a"},{"ID":3410,"AreaCode":"0559","ParentID":34,"Name":"黄山","PinYin":"huangshan","PY":"hs","P":"h"},{"ID":3411,"AreaCode":"0550","ParentID":34,"Name":"滁州","PinYin":"chuzhou","PY":"cz","P":"c"},{"ID":3412,"AreaCode":"0558","ParentID":34,"Name":"阜阳","PinYin":"fuyang","PY":"fy","P":"f"},{"ID":3413,"AreaCode":"0557","ParentID":34,"Name":"宿州","PinYin":"suzhou","PY":"sz","P":"s"},{"ID":3414,"AreaCode":null,"ParentID":34,"Name":"巢湖","PinYin":null,"PY":null,"P":null},{"ID":3415,"AreaCode":"0564","ParentID":34,"Name":"六安","PinYin":"liuan","PY":"la","P":"l"},{"ID":3416,"AreaCode":"0558","ParentID":34,"Name":"亳州","PinYin":"bozhou","PY":"bz","P":"b"},{"ID":3417,"AreaCode":"0566","ParentID":34,"Name":"池州","PinYin":"chizhou","PY":"cz","P":"c"},{"ID":3418,"AreaCode":"0563","ParentID":34,"Name":"宣城","PinYin":"xuancheng","PY":"xc","P":"x"},{"ID":3501,"AreaCode":"0591","ParentID":35,"Name":"福州","PinYin":"fuzhou","PY":"fz","P":"f"},{"ID":3502,"AreaCode":"0592","ParentID":35,"Name":"厦门","PinYin":"shamen","PY":"sm","P":"s"},{"ID":3503,"AreaCode":"0594","ParentID":35,"Name":"莆田","PinYin":"putian","PY":"pt","P":"p"},{"ID":3504,"AreaCode":"0598","ParentID":35,"Name":"三明","PinYin":"sanming","PY":"sm","P":"s"},{"ID":3505,"AreaCode":"0595","ParentID":35,"Name":"泉州","PinYin":"quanzhou","PY":"qz","P":"q"},{"ID":3506,"AreaCode":"0596","ParentID":35,"Name":"漳州","PinYin":"zhangzhou","PY":"zz","P":"z"},{"ID":3507,"AreaCode":"0599","ParentID":35,"Name":"南平","PinYin":"nanping","PY":"np","P":"n"},{"ID":3508,"AreaCode":"0597","ParentID":35,"Name":"龙岩","PinYin":"longyan","PY":"ly","P":"l"},{"ID":3509,"AreaCode":"0593","ParentID":35,"Name":"宁德","PinYin":"ningde","PY":"nd","P":"n"},{"ID":3601,"AreaCode":"0791","ParentID":36,"Name":"南昌","PinYin":"nanchang","PY":"nc","P":"n"},{"ID":3602,"AreaCode":"0798","ParentID":36,"Name":"景德镇","PinYin":"jingdezhen","PY":"jdz","P":"j"},{"ID":3603,"AreaCode":"0799","ParentID":36,"Name":"萍乡","PinYin":"pingxiang","PY":"px","P":"p"},{"ID":3604,"AreaCode":"0792","ParentID":36,"Name":"九江","PinYin":"jiujiang","PY":"jj","P":"j"},{"ID":3605,"AreaCode":"0790","ParentID":36,"Name":"新余","PinYin":"xinyu","PY":"xy","P":"x"},{"ID":3606,"AreaCode":"0701","ParentID":36,"Name":"鹰潭","PinYin":"yingtan","PY":"yt","P":"y"},{"ID":3607,"AreaCode":"0797","ParentID":36,"Name":"赣州","PinYin":"ganzhou","PY":"gz","P":"g"},{"ID":3608,"AreaCode":"0796","ParentID":36,"Name":"吉安","PinYin":"jian","PY":"ja","P":"j"},{"ID":3609,"AreaCode":"0795","ParentID":36,"Name":"宜春","PinYin":"yichun","PY":"yc","P":"y"},{"ID":3610,"AreaCode":"0794","ParentID":36,"Name":"抚州","PinYin":"fuzhou","PY":"fz","P":"f"},{"ID":3611,"AreaCode":"0793","ParentID":36,"Name":"上饶","PinYin":"shangrao","PY":"sr","P":"s"},{"ID":3701,"AreaCode":"0531","ParentID":37,"Name":"济南","PinYin":"jinan","PY":"jn","P":"j"},{"ID":3702,"AreaCode":"0532","ParentID":37,"Name":"青岛","PinYin":"qingdao","PY":"qd","P":"q"},{"ID":3703,"AreaCode":"0533","ParentID":37,"Name":"淄博","PinYin":"zibo","PY":"zb","P":"z"},{"ID":3704,"AreaCode":"0632","ParentID":37,"Name":"枣庄","PinYin":"zaozhuang","PY":"zz","P":"z"},{"ID":3705,"AreaCode":"0546","ParentID":37,"Name":"东营","PinYin":"dongying","PY":"dy","P":"d"},{"ID":3706,"AreaCode":"0535","ParentID":37,"Name":"烟台","PinYin":"yantai","PY":"yt","P":"y"},{"ID":3707,"AreaCode":"0536","ParentID":37,"Name":"潍坊","PinYin":"weifang","PY":"wf","P":"w"},{"ID":3708,"AreaCode":"0537","ParentID":37,"Name":"济宁","PinYin":"jining","PY":"jn","P":"j"},{"ID":3709,"AreaCode":"0538","ParentID":37,"Name":"泰安","PinYin":"taian","PY":"ta","P":"t"},{"ID":3710,"AreaCode":"0631","ParentID":37,"Name":"威海","PinYin":"weihai","PY":"wh","P":"w"},{"ID":3711,"AreaCode":"0633","ParentID":37,"Name":"日照","PinYin":"rizhao","PY":"rz","P":"r"},{"ID":3712,"AreaCode":"0634","ParentID":37,"Name":"莱芜","PinYin":"laiwu","PY":"lw","P":"l"},{"ID":3713,"AreaCode":"0539","ParentID":37,"Name":"临沂","PinYin":"linyi","PY":"ly","P":"l"},{"ID":3714,"AreaCode":"0534","ParentID":37,"Name":"德州","PinYin":"dezhou","PY":"dz","P":"d"},{"ID":3715,"AreaCode":"0635","ParentID":37,"Name":"聊城","PinYin":"liaocheng","PY":"lc","P":"l"},{"ID":3716,"AreaCode":"0543","ParentID":37,"Name":"滨州","PinYin":"binzhou","PY":"bz","P":"b"},{"ID":3717,"AreaCode":"0530","ParentID":37,"Name":"菏泽","PinYin":"heze","PY":"hz","P":"h"},{"ID":4101,"AreaCode":"0371","ParentID":41,"Name":"郑州","PinYin":"zhengzhou","PY":"zz","P":"z"},{"ID":4102,"AreaCode":"0378","ParentID":41,"Name":"开封","PinYin":"kaifeng","PY":"kf","P":"k"},{"ID":4103,"AreaCode":"0376","ParentID":41,"Name":"洛阳","PinYin":"luoyang","PY":"ly","P":"l"},{"ID":4104,"AreaCode":"0375","ParentID":41,"Name":"平顶山","PinYin":"pingdingshan","PY":"pds","P":"p"},{"ID":4105,"AreaCode":"0372","ParentID":41,"Name":"安阳","PinYin":"anyang","PY":"ay","P":"a"},{"ID":4106,"AreaCode":"0392","ParentID":41,"Name":"鹤壁","PinYin":"hebi","PY":"hb","P":"h"},{"ID":4107,"AreaCode":"0373","ParentID":41,"Name":"新乡","PinYin":"xinxiang","PY":"xx","P":"x"},{"ID":4108,"AreaCode":"0391","ParentID":41,"Name":"焦作","PinYin":"jiaozuo","PY":"jz","P":"j"},{"ID":4109,"AreaCode":"","ParentID":41,"Name":"濮阳","PinYin":"puyang","PY":"py","P":"p"},{"ID":4110,"AreaCode":"0374","ParentID":41,"Name":"许昌","PinYin":"xuchang","PY":"xc","P":"x"},{"ID":4111,"AreaCode":"0395","ParentID":41,"Name":"漯河","PinYin":"luohe","PY":"lh","P":"l"},{"ID":4112,"AreaCode":"0398","ParentID":41,"Name":"三门峡","PinYin":"sanmenxia","PY":"smx","P":"s"},{"ID":4113,"AreaCode":"0377","ParentID":41,"Name":"南阳","PinYin":"nanyang","PY":"ny","P":"n"},{"ID":4114,"AreaCode":"0370","ParentID":41,"Name":"商丘","PinYin":"shangqiu","PY":"sq","P":"s"},{"ID":4115,"AreaCode":"0376","ParentID":41,"Name":"信阳","PinYin":"xinyang","PY":"xy","P":"x"},{"ID":4116,"AreaCode":"0394","ParentID":41,"Name":"周口","PinYin":"zhoukou","PY":"zk","P":"z"},{"ID":4117,"AreaCode":"0396","ParentID":41,"Name":"驻马店","PinYin":"zhumadian","PY":"zmd","P":"z"},{"ID":4201,"AreaCode":"027","ParentID":42,"Name":"武汉","PinYin":"wuhan","PY":"wh","P":"w"},{"ID":4202,"AreaCode":"0714","ParentID":42,"Name":"黄石","PinYin":"huangshi","PY":"hs","P":"h"},{"ID":4203,"AreaCode":"0719","ParentID":42,"Name":"十堰","PinYin":"shiyan","PY":"sy","P":"s"},{"ID":4205,"AreaCode":"0717","ParentID":42,"Name":"宜昌","PinYin":"yichang","PY":"yc","P":"y"},{"ID":4206,"AreaCode":"0710","ParentID":42,"Name":"襄樊","PinYin":"xiangyang","PY":"xy","P":"x"},{"ID":4207,"AreaCode":"","ParentID":42,"Name":"鄂州","PinYin":"ezhou","PY":"ez","P":"e"},{"ID":4208,"AreaCode":"0724","ParentID":42,"Name":"荆门","PinYin":"jingmen","PY":"jm","P":"j"},{"ID":4209,"AreaCode":"0712","ParentID":42,"Name":"孝感","PinYin":"xiaogan","PY":"xg","P":"x"},{"ID":4210,"AreaCode":"0716","ParentID":42,"Name":"荆州","PinYin":"jingzhou","PY":"jz","P":"j"},{"ID":4211,"AreaCode":"0713","ParentID":42,"Name":"黄冈","PinYin":"huanggang","PY":"hg","P":"h"},{"ID":4212,"AreaCode":"0715","ParentID":42,"Name":"咸宁","PinYin":"xianning","PY":"xn","P":"x"},{"ID":4213,"AreaCode":"0722","ParentID":42,"Name":"随州","PinYin":"suizhou","PY":"sz","P":"s"},{"ID":4228,"AreaCode":"0718","ParentID":42,"Name":"恩施土家族苗族自治州","PinYin":"enshi","PY":"es","P":"e"},{"ID":4290,"AreaCode":null,"ParentID":42,"Name":"省直辖行政单位","PinYin":null,"PY":null,"P":null},{"ID":4301,"AreaCode":"0731","ParentID":43,"Name":"长沙","PinYin":"zhangsha","PY":"zs","P":"z"},{"ID":4302,"AreaCode":"0731","ParentID":43,"Name":"株洲","PinYin":"zhuzhou","PY":"zz","P":"z"},{"ID":4303,"AreaCode":"0731","ParentID":43,"Name":"湘潭","PinYin":"xiangtan","PY":"xt","P":"x"},{"ID":4304,"AreaCode":"0734","ParentID":43,"Name":"衡阳","PinYin":"hengyang","PY":"hy","P":"h"},{"ID":4305,"AreaCode":"0739","ParentID":43,"Name":"邵阳","PinYin":"shaoyang","PY":"sy","P":"s"},{"ID":4306,"AreaCode":"0730","ParentID":43,"Name":"岳阳","PinYin":"yueyang","PY":"yy","P":"y"},{"ID":4307,"AreaCode":"0736","ParentID":43,"Name":"常德","PinYin":"changde","PY":"cd","P":"c"},{"ID":4308,"AreaCode":"0744","ParentID":43,"Name":"张家界","PinYin":"zhangjiajie","PY":"zjj","P":"z"},{"ID":4309,"AreaCode":"0737","ParentID":43,"Name":"益阳","PinYin":"yiyang","PY":"yy","P":"y"},{"ID":4310,"AreaCode":"0735","ParentID":43,"Name":"郴州","PinYin":"chenzhou","PY":"cz","P":"c"},{"ID":4311,"AreaCode":"0746","ParentID":43,"Name":"永州","PinYin":"yongzhou","PY":"yz","P":"y"},{"ID":4312,"AreaCode":"0745","ParentID":43,"Name":"怀化","PinYin":"huaihua","PY":"hh","P":"h"},{"ID":4313,"AreaCode":"0738","ParentID":43,"Name":"娄底","PinYin":"loudi","PY":"ld","P":"l"},{"ID":4331,"AreaCode":"0743","ParentID":43,"Name":"湘西土家族苗族自治州","PinYin":"xiangxi","PY":"xx","P":"x"},{"ID":4401,"AreaCode":"020","ParentID":44,"Name":"广州","PinYin":"guangzhou","PY":"gz","P":"g"},{"ID":4402,"AreaCode":"0751","ParentID":44,"Name":"韶关","PinYin":"shaoguan","PY":"sg","P":"s"},{"ID":4403,"AreaCode":"0755","ParentID":44,"Name":"深圳","PinYin":"shenzhen","PY":"sz","P":"s"},{"ID":4404,"AreaCode":"0756","ParentID":44,"Name":"珠海","PinYin":"zhuhai","PY":"zh","P":"z"},{"ID":4405,"AreaCode":"0754","ParentID":44,"Name":"汕头","PinYin":"shantou","PY":"st","P":"s"},{"ID":4406,"AreaCode":"0757","ParentID":44,"Name":"佛山","PinYin":"foshan","PY":"fs","P":"f"},{"ID":4407,"AreaCode":"0750","ParentID":44,"Name":"江门","PinYin":"jiangmen","PY":"jm","P":"j"},{"ID":4408,"AreaCode":"0759","ParentID":44,"Name":"湛江","PinYin":"zhanjiang","PY":"zj","P":"z"},{"ID":4409,"AreaCode":"0668","ParentID":44,"Name":"茂名","PinYin":"maoming","PY":"mm","P":"m"},{"ID":4412,"AreaCode":"0758","ParentID":44,"Name":"肇庆","PinYin":"zhaoqing","PY":"zq","P":"z"},{"ID":4413,"AreaCode":"0752","ParentID":44,"Name":"惠州","PinYin":"huizhou","PY":"hz","P":"h"},{"ID":4414,"AreaCode":"0753","ParentID":44,"Name":"梅州","PinYin":"meizhou","PY":"mz","P":"m"},{"ID":4415,"AreaCode":"0660","ParentID":44,"Name":"汕尾","PinYin":"shanwei","PY":"sw","P":"s"},{"ID":4416,"AreaCode":"0762","ParentID":44,"Name":"河源","PinYin":"heyuan","PY":"hy","P":"h"},{"ID":4417,"AreaCode":"0662","ParentID":44,"Name":"阳江","PinYin":"yangjiang","PY":"yj","P":"y"},{"ID":4418,"AreaCode":"0763","ParentID":44,"Name":"清远","PinYin":"qingyuan","PY":"qy","P":"q"},{"ID":4419,"AreaCode":"0769","ParentID":44,"Name":"东莞","PinYin":"dongguan","PY":"dg","P":"d"},{"ID":4420,"AreaCode":"0760","ParentID":44,"Name":"中山","PinYin":"zhongshan","PY":"zs","P":"z"},{"ID":4451,"AreaCode":"0768","ParentID":44,"Name":"潮州","PinYin":"chaozhou","PY":"cz","P":"c"},{"ID":4452,"AreaCode":"0663","ParentID":44,"Name":"揭阳","PinYin":"jieyang","PY":"jy","P":"j"},{"ID":4453,"AreaCode":"0766","ParentID":44,"Name":"云浮","PinYin":"yunfu","PY":"yf","P":"y"},{"ID":4501,"AreaCode":"0771","ParentID":45,"Name":"南宁","PinYin":"nanning","PY":"nn","P":"n"},{"ID":4502,"AreaCode":"0772","ParentID":45,"Name":"柳州","PinYin":"liuzhou","PY":"lz","P":"l"},{"ID":4503,"AreaCode":"0773","ParentID":45,"Name":"桂林","PinYin":"guilin","PY":"gl","P":"g"},{"ID":4504,"AreaCode":"0774","ParentID":45,"Name":"梧州","PinYin":"wuzhou","PY":"wz","P":"w"},{"ID":4505,"AreaCode":"0779","ParentID":45,"Name":"北海","PinYin":"beihai","PY":"bh","P":"b"},{"ID":4506,"AreaCode":"0770","ParentID":45,"Name":"防城港","PinYin":"fangchenggang","PY":"fcg","P":"f"},{"ID":4507,"AreaCode":"0777","ParentID":45,"Name":"钦州","PinYin":"qinzhou","PY":"qz","P":"q"},{"ID":4508,"AreaCode":"0775","ParentID":45,"Name":"贵港","PinYin":"guigang","PY":"gg","P":"g"},{"ID":4509,"AreaCode":"0775","ParentID":45,"Name":"玉林","PinYin":"yulin","PY":"yl","P":"y"},{"ID":4521,"AreaCode":null,"ParentID":45,"Name":"南宁地区","PinYin":null,"PY":null,"P":null},{"ID":4522,"AreaCode":null,"ParentID":45,"Name":"柳州地区","PinYin":null,"PY":null,"P":null},{"ID":4524,"AreaCode":null,"ParentID":45,"Name":"贺州地区","PinYin":null,"PY":null,"P":null},{"ID":4526,"AreaCode":null,"ParentID":45,"Name":"百色地区","PinYin":null,"PY":null,"P":null},{"ID":4527,"AreaCode":null,"ParentID":45,"Name":"河池地区","PinYin":null,"PY":null,"P":null},{"ID":4601,"AreaCode":"0898","ParentID":46,"Name":"海南","PinYin":"haikou","PY":"hk","P":"h"},{"ID":4602,"AreaCode":"0898","ParentID":46,"Name":"海口","PinYin":"sanya","PY":"sy","P":"s"},{"ID":4603,"AreaCode":"0898","ParentID":46,"Name":"三亚","PinYin":"sansha","PY":"ss","P":"s"},{"ID":5001,"AreaCode":null,"ParentID":50,"Name":"重庆市辖","PinYin":null,"PY":null,"P":null},{"ID":5002,"AreaCode":null,"ParentID":50,"Name":"重庆县辖","PinYin":null,"PY":null,"P":null},{"ID":5003,"AreaCode":null,"ParentID":50,"Name":"重庆县级","PinYin":null,"PY":null,"P":null},{"ID":5101,"AreaCode":"028","ParentID":51,"Name":"成都","PinYin":"chengdou","PY":"cd","P":"c"},{"ID":5103,"AreaCode":"0813","ParentID":51,"Name":"自贡","PinYin":"zigong","PY":"zg","P":"z"},{"ID":5104,"AreaCode":"0812","ParentID":51,"Name":"攀枝花","PinYin":"panzhihua","PY":"pzh","P":"p"},{"ID":5105,"AreaCode":"0830","ParentID":51,"Name":"泸州","PinYin":"luzhou","PY":"lz","P":"l"},{"ID":5106,"AreaCode":"0838","ParentID":51,"Name":"德阳","PinYin":"deyang","PY":"dy","P":"d"},{"ID":5107,"AreaCode":"0816","ParentID":51,"Name":"绵阳","PinYin":"mianyang","PY":"my","P":"m"},{"ID":5108,"AreaCode":"0839","ParentID":51,"Name":"广元","PinYin":"guangyuan","PY":"gy","P":"g"},{"ID":5109,"AreaCode":"0825","ParentID":51,"Name":"遂宁","PinYin":"suining","PY":"sn","P":"s"},{"ID":5110,"AreaCode":"","ParentID":51,"Name":"内江","PinYin":"neijiang","PY":"nj","P":"n"},{"ID":5111,"AreaCode":"0833","ParentID":51,"Name":"乐山","PinYin":"leshan","PY":"ls","P":"l"},{"ID":5113,"AreaCode":"0817","ParentID":51,"Name":"南充","PinYin":"nanchong","PY":"nc","P":"n"},{"ID":5114,"AreaCode":"028","ParentID":51,"Name":"眉山","PinYin":"meishan","PY":"ms","P":"m"},{"ID":5115,"AreaCode":"0831","ParentID":51,"Name":"宜宾","PinYin":"yibin","PY":"yb","P":"y"},{"ID":5116,"AreaCode":"0826","ParentID":51,"Name":"广安","PinYin":"guangan","PY":"ga","P":"g"},{"ID":5117,"AreaCode":"0818","ParentID":51,"Name":"达州","PinYin":"dazhou","PY":"dz","P":"d"},{"ID":5118,"AreaCode":"0835","ParentID":51,"Name":"雅安","PinYin":"yaan","PY":"ya","P":"y"},{"ID":5119,"AreaCode":"0827","ParentID":51,"Name":"巴中","PinYin":"bazhong","PY":"bz","P":"b"},{"ID":5120,"AreaCode":"028","ParentID":51,"Name":"资阳","PinYin":"ziyang","PY":"zy","P":"z"},{"ID":5132,"AreaCode":"0837","ParentID":51,"Name":"阿坝藏族羌族自治州","PinYin":"aba","PY":"ab","P":"a"},{"ID":5133,"AreaCode":"0836","ParentID":51,"Name":"甘孜藏族自治州","PinYin":"ganzi","PY":"gz","P":"g"},{"ID":5134,"AreaCode":null,"ParentID":51,"Name":"凉山彝族自治州","PinYin":null,"PY":null,"P":null},{"ID":5201,"AreaCode":"0851","ParentID":52,"Name":"贵阳","PinYin":"guiyang","PY":"gy","P":"g"},{"ID":5202,"AreaCode":"0858","ParentID":52,"Name":"六盘水","PinYin":"liupanshui","PY":"lps","P":"l"},{"ID":5203,"AreaCode":"0852","ParentID":52,"Name":"遵义","PinYin":"zunyi","PY":"zy","P":"z"},{"ID":5204,"AreaCode":"0853","ParentID":52,"Name":"安顺","PinYin":"anshun","PY":"as","P":"a"},{"ID":5222,"AreaCode":null,"ParentID":52,"Name":"铜仁地区","PinYin":null,"PY":null,"P":null},{"ID":5223,"AreaCode":"0859","ParentID":52,"Name":"黔西南布依族苗族自治","PinYin":"qianxinan","PY":"qxn","P":"q"},{"ID":5224,"AreaCode":null,"ParentID":52,"Name":"毕节地区","PinYin":null,"PY":null,"P":null},{"ID":5226,"AreaCode":"0855","ParentID":52,"Name":"黔东南苗族侗族自治州","PinYin":"qiandongnan","PY":"qdn","P":"q"},{"ID":5227,"AreaCode":"0854","ParentID":52,"Name":"黔南布依族苗族自治州","PinYin":"qiannan","PY":"qn","P":"q"},{"ID":5301,"AreaCode":"0871","ParentID":53,"Name":"昆明","PinYin":"kunming","PY":"km","P":"k"},{"ID":5303,"AreaCode":"0874","ParentID":53,"Name":"曲靖","PinYin":"qujing","PY":"qj","P":"q"},{"ID":5304,"AreaCode":"0877","ParentID":53,"Name":"玉溪","PinYin":"yuxi","PY":"yx","P":"y"},{"ID":5305,"AreaCode":null,"ParentID":53,"Name":"保山","PinYin":null,"PY":null,"P":null},{"ID":5321,"AreaCode":null,"ParentID":53,"Name":"昭通地区","PinYin":null,"PY":null,"P":null},{"ID":5323,"AreaCode":"0878","ParentID":53,"Name":"楚雄彝族自治州","PinYin":"chuxiong","PY":"cx","P":"c"},{"ID":5325,"AreaCode":"0873","ParentID":53,"Name":"红河哈尼族彝族自治州","PinYin":"honghe","PY":"hh","P":"h"},{"ID":5326,"AreaCode":"0876","ParentID":53,"Name":"文山壮族苗族自治州","PinYin":"wenshan","PY":"ws","P":"w"},{"ID":5327,"AreaCode":null,"ParentID":53,"Name":"思茅地区","PinYin":null,"PY":null,"P":null},{"ID":5328,"AreaCode":"0691","ParentID":53,"Name":"西双版纳傣族自治州","PinYin":"xishuangbanna","PY":"xsbn","P":"x"},{"ID":5329,"AreaCode":"0872","ParentID":53,"Name":"大理白族自治州","PinYin":"dali","PY":"dl","P":"d"},{"ID":5331,"AreaCode":"0692","ParentID":53,"Name":"德宏傣族景颇族自治州","PinYin":"dehong","PY":"dh","P":"d"},{"ID":5332,"AreaCode":null,"ParentID":53,"Name":"丽江地区","PinYin":null,"PY":null,"P":null},{"ID":5333,"AreaCode":"0886","ParentID":53,"Name":"怒江傈僳族自治州","PinYin":"nujiang","PY":"nj","P":"n"},{"ID":5334,"AreaCode":"0887","ParentID":53,"Name":"迪庆藏族自治州","PinYin":"diqing","PY":"dq","P":"d"},{"ID":5335,"AreaCode":null,"ParentID":53,"Name":"临沧地区","PinYin":null,"PY":null,"P":null},{"ID":5401,"AreaCode":"0891","ParentID":54,"Name":"拉萨","PinYin":"lasa","PY":"ls","P":"l"},{"ID":5421,"AreaCode":"0895","ParentID":54,"Name":"昌都地区","PinYin":"changdou","PY":"cd","P":"c"},{"ID":5422,"AreaCode":"0893","ParentID":54,"Name":"山南地区","PinYin":"shannan","PY":"sn","P":"s"},{"ID":5423,"AreaCode":"0892","ParentID":54,"Name":"日喀则地区","PinYin":"rikaze","PY":"rkz","P":"r"},{"ID":5424,"AreaCode":"0896","ParentID":54,"Name":"那曲地区","PinYin":"neiqu","PY":"nq","P":"n"},{"ID":5425,"AreaCode":"0897","ParentID":54,"Name":"阿里地区","PinYin":"ali","PY":"al","P":"a"},{"ID":5426,"AreaCode":null,"ParentID":54,"Name":"林芝地区","PinYin":null,"PY":null,"P":null},{"ID":6101,"AreaCode":"029","ParentID":61,"Name":"西安","PinYin":"xian","PY":"xa","P":"x"},{"ID":6102,"AreaCode":"0919","ParentID":61,"Name":"铜川","PinYin":"tongchuan","PY":"tc","P":"t"},{"ID":6103,"AreaCode":"0917","ParentID":61,"Name":"宝鸡","PinYin":"baoji","PY":"bj","P":"b"},{"ID":6104,"AreaCode":"029","ParentID":61,"Name":"咸阳","PinYin":"xianyang","PY":"xy","P":"x"},{"ID":6105,"AreaCode":"0913","ParentID":61,"Name":"渭南","PinYin":"weinan","PY":"wn","P":"w"},{"ID":6106,"AreaCode":"0911","ParentID":61,"Name":"延安","PinYin":"yanan","PY":"ya","P":"y"},{"ID":6107,"AreaCode":"0916","ParentID":61,"Name":"汉中","PinYin":"hanzhong","PY":"hz","P":"h"},{"ID":6108,"AreaCode":"0912","ParentID":61,"Name":"榆林","PinYin":"yulin","PY":"yl","P":"y"},{"ID":6109,"AreaCode":"0915","ParentID":61,"Name":"安康","PinYin":"ankang","PY":"ak","P":"a"},{"ID":6125,"AreaCode":null,"ParentID":61,"Name":"商洛地区","PinYin":null,"PY":null,"P":null},{"ID":6201,"AreaCode":"0931","ParentID":62,"Name":"兰州","PinYin":"lanzhou","PY":"lz","P":"l"},{"ID":6202,"AreaCode":"0937","ParentID":62,"Name":"嘉峪关","PinYin":"jiayuguan","PY":"jyg","P":"j"},{"ID":6203,"AreaCode":"0935","ParentID":62,"Name":"金昌","PinYin":"jinchang","PY":"jc","P":"j"},{"ID":6204,"AreaCode":"0943","ParentID":62,"Name":"白银","PinYin":"baiyin","PY":"by","P":"b"},{"ID":6205,"AreaCode":"0938","ParentID":62,"Name":"天水","PinYin":"tianshui","PY":"ts","P":"t"},{"ID":6221,"AreaCode":null,"ParentID":62,"Name":"酒泉地区","PinYin":null,"PY":null,"P":null},{"ID":6222,"AreaCode":null,"ParentID":62,"Name":"张掖地区","PinYin":null,"PY":null,"P":null},{"ID":6223,"AreaCode":null,"ParentID":62,"Name":"武威地区","PinYin":null,"PY":null,"P":null},{"ID":6224,"AreaCode":null,"ParentID":62,"Name":"定西地区","PinYin":null,"PY":null,"P":null},{"ID":6226,"AreaCode":null,"ParentID":62,"Name":"陇南地区","PinYin":null,"PY":null,"P":null},{"ID":6227,"AreaCode":null,"ParentID":62,"Name":"平凉地区","PinYin":null,"PY":null,"P":null},{"ID":6228,"AreaCode":null,"ParentID":62,"Name":"庆阳地区","PinYin":null,"PY":null,"P":null},{"ID":6229,"AreaCode":"0930","ParentID":62,"Name":"临夏回族自治州","PinYin":"linxia","PY":"lx","P":"l"},{"ID":6230,"AreaCode":"0941","ParentID":62,"Name":"甘南藏族自治州","PinYin":"gannan","PY":"gn","P":"g"},{"ID":6301,"AreaCode":"0971","ParentID":63,"Name":"西宁","PinYin":"xining","PY":"xn","P":"x"},{"ID":6321,"AreaCode":"0972","ParentID":63,"Name":"海东地区","PinYin":"haidong","PY":"hd","P":"h"},{"ID":6322,"AreaCode":"0970","ParentID":63,"Name":"海北藏族自治州","PinYin":"haibei","PY":"hb","P":"h"},{"ID":6323,"AreaCode":"0973","ParentID":63,"Name":"黄南藏族自治州","PinYin":"huangnan","PY":"hn","P":"h"},{"ID":6325,"AreaCode":"0974","ParentID":63,"Name":"海南藏族自治州","PinYin":"hainan","PY":"hn","P":"h"},{"ID":6326,"AreaCode":"0975","ParentID":63,"Name":"果洛藏族自治州","PinYin":"guoluo","PY":"gl","P":"g"},{"ID":6327,"AreaCode":"0976","ParentID":63,"Name":"玉树藏族自治州","PinYin":"yushu","PY":"ys","P":"y"},{"ID":6328,"AreaCode":"0977","ParentID":63,"Name":"海西蒙古族藏族自治州","PinYin":"haixi","PY":"hx","P":"h"},{"ID":6401,"AreaCode":"0951","ParentID":64,"Name":"银川","PinYin":"yinchuan","PY":"yc","P":"y"},{"ID":6402,"AreaCode":"0952","ParentID":64,"Name":"石嘴山","PinYin":"shizuishan","PY":"szs","P":"s"},{"ID":6403,"AreaCode":"0953","ParentID":64,"Name":"吴忠","PinYin":"wuzhong","PY":"wz","P":"w"},{"ID":6422,"AreaCode":null,"ParentID":64,"Name":"固原地区","PinYin":null,"PY":null,"P":null},{"ID":6501,"AreaCode":"0991","ParentID":65,"Name":"乌鲁木齐","PinYin":"wulumuqi","PY":"wlmq","P":"w"},{"ID":6502,"AreaCode":"0990","ParentID":65,"Name":"克拉玛依","PinYin":"kelamayi","PY":"klmy","P":"k"},{"ID":6521,"AreaCode":"0995","ParentID":65,"Name":"吐鲁番地区","PinYin":"tulufan","PY":"tlf","P":"t"},{"ID":6522,"AreaCode":"0902","ParentID":65,"Name":"哈密地区","PinYin":"hami","PY":"hm","P":"h"},{"ID":6523,"AreaCode":"0994","ParentID":65,"Name":"昌吉回族自治州","PinYin":"changji","PY":"cj","P":"c"},{"ID":6527,"AreaCode":"0909","ParentID":65,"Name":"博尔塔拉蒙古自治州","PinYin":"boertala","PY":"betl","P":"b"},{"ID":6528,"AreaCode":"0996","ParentID":65,"Name":"巴音郭楞蒙古自治州","PinYin":"bayinguoleng","PY":"bygl","P":"b"},{"ID":6529,"AreaCode":"0997","ParentID":65,"Name":"阿克苏地区","PinYin":"akesu","PY":"aks","P":"a"},{"ID":6530,"AreaCode":"0908","ParentID":65,"Name":"克孜勒苏柯尔克孜自治","PinYin":"kezilesu","PY":"kzls","P":"k"},{"ID":6531,"AreaCode":"0998","ParentID":65,"Name":"喀什地区","PinYin":"kashi","PY":"ks","P":"k"},{"ID":6532,"AreaCode":"0903","ParentID":65,"Name":"和田地区","PinYin":"hetian","PY":"ht","P":"h"},{"ID":6540,"AreaCode":"0999","ParentID":65,"Name":"伊犁哈萨克自治州","PinYin":"yili","PY":"yl","P":"y"},{"ID":6541,"AreaCode":null,"ParentID":65,"Name":"伊犁地区","PinYin":null,"PY":null,"P":null},{"ID":6542,"AreaCode":"0901","ParentID":65,"Name":"塔城地区","PinYin":"tacheng","PY":"tc","P":"t"},{"ID":6543,"AreaCode":"0906","ParentID":65,"Name":"阿勒泰地区","PinYin":"aletai","PY":"alt","P":"a"},{"ID":6590,"AreaCode":null,"ParentID":65,"Name":"省直辖行政单位","PinYin":null,"PY":null,"P":null},{"ID":7101,"AreaCode":null,"ParentID":71,"Name":"台湾市辖","PinYin":null,"PY":null,"P":null},{"ID":8101,"AreaCode":null,"ParentID":81,"Name":"香港特区","PinYin":null,"PY":null,"P":null},{"ID":9101,"AreaCode":null,"ParentID":91,"Name":"澳门特区","PinYin":null,"PY":null,"P":null}] 