[{"ID":11,"AreaCode":"010","ParentID":0,"Name":"北京","PinYin":"beijing","PY":"bj","P":"b"},{"ID":12,"AreaCode":"022","ParentID":0,"Name":"天津","PinYin":"tianjin","PY":"tj","P":"t"},{"ID":13,"AreaCode":"","ParentID":0,"Name":"河北","PinYin":"hebei","PY":"hb","P":"h"},{"ID":14,"AreaCode":"","ParentID":0,"Name":"山西","PinYin":"shanxi","PY":"sx","P":"s"},{"ID":15,"AreaCode":"","ParentID":0,"Name":"内蒙古","PinYin":"neimenggu","PY":"nmg","P":"n"},{"ID":21,"AreaCode":"","ParentID":0,"Name":"辽宁","PinYin":"liaoning","PY":"ln","P":"l"},{"ID":22,"AreaCode":"","ParentID":0,"Name":"吉林","PinYin":"jilin","PY":"jl","P":"j"},{"ID":23,"AreaCode":"","ParentID":0,"Name":"黑龙江","PinYin":"heilongjiang","PY":"hlj","P":"h"},{"ID":31,"AreaCode":"021","ParentID":0,"Name":"上海","PinYin":"shanghai","PY":"sh","P":"s"},{"ID":32,"AreaCode":"","ParentID":0,"Name":"江苏","PinYin":"jiangsu","PY":"js","P":"j"},{"ID":33,"AreaCode":"","ParentID":0,"Name":"浙江","PinYin":"zhejiang","PY":"zj","P":"z"},{"ID":34,"AreaCode":"","ParentID":0,"Name":"安徽","PinYin":"anhui","PY":"ah","P":"a"},{"ID":35,"AreaCode":"","ParentID":0,"Name":"福建","PinYin":"fujian","PY":"fj","P":"f"},{"ID":36,"AreaCode":"","ParentID":0,"Name":"江西","PinYin":"jiangxi","PY":"jx","P":"j"},{"ID":37,"AreaCode":"","ParentID":0,"Name":"山东","PinYin":"shandong","PY":"sd","P":"s"},{"ID":41,"AreaCode":"","ParentID":0,"Name":"河南","PinYin":"henan","PY":"hn","P":"h"},{"ID":42,"AreaCode":"","ParentID":0,"Name":"湖北","PinYin":"hubei","PY":"hb","P":"h"},{"ID":43,"AreaCode":"","ParentID":0,"Name":"湖南","PinYin":"hunan","PY":"hn","P":"h"},{"ID":44,"AreaCode":"","ParentID":0,"Name":"广东","PinYin":"guangdong","PY":"gd","P":"g"},{"ID":45,"AreaCode":"","ParentID":0,"Name":"广西","PinYin":"guangxi","PY":"gx","P":"g"},{"ID":46,"AreaCode":"","ParentID":0,"Name":"海南","PinYin":"hainan","PY":"hn","P":"h"},{"ID":50,"AreaCode":"023","ParentID":0,"Name":"重庆","PinYin":"zhongqing","PY":"zq","P":"z"},{"ID":51,"AreaCode":"","ParentID":0,"Name":"四川","PinYin":"sichuan","PY":"sc","P":"s"},{"ID":52,"AreaCode":"","ParentID":0,"Name":"贵州","PinYin":"guizhou","PY":"gz","P":"g"},{"ID":53,"AreaCode":"","ParentID":0,"Name":"云南","PinYin":"yunnan","PY":"yn","P":"y"},{"ID":54,"AreaCode":"","ParentID":0,"Name":"西藏","PinYin":"xizang","PY":"xz","P":"x"},{"ID":61,"AreaCode":"","ParentID":0,"Name":"陕西","PinYin":"shanxi","PY":"sx","P":"s"},{"ID":62,"AreaCode":"","ParentID":0,"Name":"甘肃","PinYin":"gansu","PY":"gs","P":"g"},{"ID":63,"AreaCode":"","ParentID":0,"Name":"青海","PinYin":"qinghai","PY":"qh","P":"q"},{"ID":64,"AreaCode":"","ParentID":0,"Name":"宁夏","PinYin":"ningxia","PY":"nx","P":"n"},{"ID":65,"AreaCode":"","ParentID":0,"Name":"新疆","PinYin":"xinjiang","PY":"xj","P":"x"},{"ID":71,"AreaCode":"","ParentID":0,"Name":"台湾","PinYin":"taiwan","PY":"tw","P":"t"},{"ID":81,"AreaCode":"852","ParentID":0,"Name":"香港","PinYin":"xianggang","PY":"xg","P":"x"},{"ID":91,"AreaCode":null,"ParentID":0,"Name":"澳门","PinYin":null,"PY":null,"P":null}] 